{
  "type": "FeatureCollection",
  "features": [
    {
      "type": "Feature",
      "properties": {
        "norad_id": 36229,
        "name": "FENGYUN 1C DEB",
        "group": "fengyun-1c-debris",
        "lat": 66.53176568741286,
        "lon": 173.54874736316438,
        "alt_km": 833.8721848641317,
        "timestamp": "2025-12-07T07:31:36.586678+00:00",
        "meta_object_name": "FENGYUN 1C DEB",
        "meta_object_id": "1999-025DVE",
        "meta_epoch": "2025-12-06T09:00:50.979456",
        "meta_mean_motion": 14.0714207,
        "meta_eccentricity": 0.01024665,
        "meta_inclination": 100.9241,
        "meta_ra_of_asc_node": 198.8304,
        "meta_arg_of_pericenter": 139.4273,
        "meta_mean_anomaly": 221.4583,
        "meta_ephemeris_type": 0,
        "meta_classification_type": "U",
        "meta_norad_cat_id": 36229,
        "meta_element_set_no": 999,
        "meta_rev_at_epoch": 63166,
        "meta_bstar": 0.0025541808,
        "meta_mean_motion_dot": 4.428e-05,
        "meta_mean_motion_ddot": 0,
        "tle_line1": "1 36229U 99025DVE 25340.37559004  .00004428  00000+0  25542-2 0  9991",
        "tle_line2": "2 36229 100.9241 198.8304 0102466 139.4273 221.4583 14.07142070631665"
      },
      "geometry": {
        "type": "Point",
        "coordinates": [
          173.54874736316438,
          66.53176568741286
        ]
      }
    },
    {
      "type": "Feature",
      "properties": {
        "norad_id": 36230,
        "name": "FENGYUN 1C DEB",
        "group": "fengyun-1c-debris",
        "lat": -18.098488546543265,
        "lon": -126.7151516091835,
        "alt_km": 865.3662204760658,
        "timestamp": "2025-12-07T07:31:36.586688+00:00",
        "meta_object_name": "FENGYUN 1C DEB",
        "meta_object_id": "1999-025DVF",
        "meta_epoch": "2025-12-01T10:53:13.084224",
        "meta_mean_motion": 13.75193497,
        "meta_eccentricity": 0.02182616,
        "meta_inclination": 99.5257,
        "meta_ra_of_asc_node": 50.5767,
        "meta_arg_of_pericenter": 171.2335,
        "meta_mean_anomaly": 189.2724,
        "meta_ephemeris_type": 0,
        "meta_classification_type": "U",
        "meta_norad_cat_id": 36230,
        "meta_element_set_no": 999,
        "meta_rev_at_epoch": 61731,
        "meta_bstar": 0.0022005072,
        "meta_mean_motion_dot": 2.463e-05,
        "meta_mean_motion_ddot": 0,
        "tle_line1": "1 36230U 99025DVF 25335.45362366  .00002463  00000+0  22005-2 0  9997",
        "tle_line2": "2 36230  99.5257  50.5767 0218261 171.2335 189.2724 13.75193497617315"
      },
      "geometry": {
        "type": "Point",
        "coordinates": [
          -126.7151516091835,
          -18.098488546543265
        ]
      }
    },
    {
      "type": "Feature",
      "properties": {
        "norad_id": 36231,
        "name": "FENGYUN 1C DEB",
        "group": "fengyun-1c-debris",
        "lat": 76.95469927945558,
        "lon": 177.70550080450323,
        "alt_km": 860.5973640387119,
        "timestamp": "2025-12-07T07:31:36.586698+00:00",
        "meta_object_name": "FENGYUN 1C DEB",
        "meta_object_id": "1999-025DVG",
        "meta_epoch": "2025-12-05T15:56:36.863520",
        "meta_mean_motion": 14.12000961,
        "meta_eccentricity": 0.0060915,
        "meta_inclination": 98.6876,
        "meta_ra_of_asc_node": 314.8164,
        "meta_arg_of_pericenter": 353.731,
        "meta_mean_anomaly": 6.3094,
        "meta_ephemeris_type": 0,
        "meta_classification_type": "U",
        "meta_norad_cat_id": 36231,
        "meta_element_set_no": 999,
        "meta_rev_at_epoch": 85443,
        "meta_bstar": 0.00026309485,
        "meta_mean_motion_dot": 4.47e-06,
        "meta_mean_motion_ddot": 0,
        "tle_line1": "1 36231U 99025DVG 25339.66431555  .00000447  00000+0  26309-3 0  9994",
        "tle_line2": "2 36231  98.6876 314.8164 0060915 353.7310   6.3094 14.12000961854431"
      },
      "geometry": {
        "type": "Point",
        "coordinates": [
          177.70550080450323,
          76.95469927945558
        ]
      }
    },
    {
      "type": "Feature",
      "properties": {
        "norad_id": 36232,
        "name": "FENGYUN 1C DEB",
        "group": "fengyun-1c-debris",
        "lat": -23.066011735922306,
        "lon": -30.74747738889016,
        "alt_km": 821.2310311647234,
        "timestamp": "2025-12-07T07:31:36.586708+00:00",
        "meta_object_name": "FENGYUN 1C DEB",
        "meta_object_id": "1999-025DVH",
        "meta_epoch": "2025-12-06T16:20:06.214272",
        "meta_mean_motion": 14.12489244,
        "meta_eccentricity": 0.01193626,
        "meta_inclination": 98.7041,
        "meta_ra_of_asc_node": 324.8972,
        "meta_arg_of_pericenter": 45.2635,
        "meta_mean_anomaly": 315.8179,
        "meta_ephemeris_type": 0,
        "meta_classification_type": "U",
        "meta_norad_cat_id": 36232,
        "meta_element_set_no": 999,
        "meta_rev_at_epoch": 61650,
        "meta_bstar": 0.0005849679,
        "meta_mean_motion_dot": 1.114e-05,
        "meta_mean_motion_ddot": 0,
        "tle_line1": "1 36232U 99025DVH 25340.68062748  .00001114  00000+0  58497-3 0  9998",
        "tle_line2": "2 36232  98.7041 324.8972 0119362  45.2635 315.8179 14.12489244616500"
      },
      "geometry": {
        "type": "Point",
        "coordinates": [
          -30.74747738889016,
          -23.066011735922306
        ]
      }
    },
    {
      "type": "Feature",
      "properties": {
        "norad_id": 36234,
        "name": "FENGYUN 1C DEB",
        "group": "fengyun-1c-debris",
        "lat": -47.20543393706861,
        "lon": 61.53470114974183,
        "alt_km": 1087.0423129603678,
        "timestamp": "2025-12-07T07:31:36.586717+00:00",
        "meta_object_name": "FENGYUN 1C DEB",
        "meta_object_id": "1999-025DVK",
        "meta_epoch": "2025-12-03T10:58:09.682464",
        "meta_mean_motion": 13.45652175,
        "meta_eccentricity": 0.03179973,
        "meta_inclination": 99.0038,
        "meta_ra_of_asc_node": 48.2074,
        "meta_arg_of_pericenter": 51.7267,
        "meta_mean_anomaly": 311.2025,
        "meta_ephemeris_type": 0,
        "meta_classification_type": "U",
        "meta_norad_cat_id": 36234,
        "meta_element_set_no": 999,
        "meta_rev_at_epoch": 87822,
        "meta_bstar": 0.00044117978,
        "meta_mean_motion_dot": 3.19e-06,
        "meta_mean_motion_ddot": 0,
        "tle_line1": "1 36234U 99025DVK 25337.45705651  .00000319  00000+0  44118-3 0  9999",
        "tle_line2": "2 36234  99.0038  48.2074 0317997  51.7267 311.2025 13.45652175878228"
      },
      "geometry": {
        "type": "Point",
        "coordinates": [
          61.53470114974183,
          -47.20543393706861
        ]
      }
    },
    {
      "type": "Feature",
      "properties": {
        "norad_id": 36236,
        "name": "FENGYUN 1C DEB",
        "group": "fengyun-1c-debris",
        "lat": 79.80576561594555,
        "lon": -97.90649904986365,
        "alt_km": 933.0255556907323,
        "timestamp": "2025-12-07T07:31:36.586728+00:00",
        "meta_object_name": "FENGYUN 1C DEB",
        "meta_object_id": "1999-025DVM",
        "meta_epoch": "2025-12-05T08:09:49.046400",
        "meta_mean_motion": 13.81948459,
        "meta_eccentricity": 0.01498133,
        "meta_inclination": 98.8508,
        "meta_ra_of_asc_node": 20.19,
        "meta_arg_of_pericenter": 18.1791,
        "meta_mean_anomaly": 342.4641,
        "meta_ephemeris_type": 0,
        "meta_classification_type": "U",
        "meta_norad_cat_id": 36236,
        "meta_element_set_no": 999,
        "meta_rev_at_epoch": 59645,
        "meta_bstar": 0.0004784267,
        "meta_mean_motion_dot": 5.19e-06,
        "meta_mean_motion_ddot": 0,
        "tle_line1": "1 36236U 99025DVM 25339.34015100  .00000519  00000+0  47843-3 0  9994",
        "tle_line2": "2 36236  98.8508  20.1900 0149813  18.1791 342.4641 13.81948459596450"
      },
      "geometry": {
        "type": "Point",
        "coordinates": [
          -97.90649904986365,
          79.80576561594555
        ]
      }
    },
    {
      "type": "Feature",
      "properties": {
        "norad_id": 36238,
        "name": "FENGYUN 1C DEB",
        "group": "fengyun-1c-debris",
        "lat": -0.4606668665602979,
        "lon": -45.95822416374355,
        "alt_km": 847.178022227552,
        "timestamp": "2025-12-07T07:31:36.586737+00:00",
        "meta_object_name": "FENGYUN 1C DEB",
        "meta_object_id": "1999-025DVP",
        "meta_epoch": "2025-12-06T21:19:40.146240",
        "meta_mean_motion": 14.1238758,
        "meta_eccentricity": 0.00202641,
        "meta_inclination": 98.6462,
        "meta_ra_of_asc_node": 313.5617,
        "meta_arg_of_pericenter": 299.2987,
        "meta_mean_anomaly": 60.6161,
        "meta_ephemeris_type": 0,
        "meta_classification_type": "U",
        "meta_norad_cat_id": 36238,
        "meta_element_set_no": 999,
        "meta_rev_at_epoch": 86935,
        "meta_bstar": 0.00011828203,
        "meta_mean_motion_dot": 1.76e-06,
        "meta_mean_motion_ddot": 0,
        "tle_line1": "1 36238U 99025DVP 25340.88865910  .00000176  00000+0  11828-3 0  9992",
        "tle_line2": "2 36238  98.6462 313.5617 0020264 299.2987  60.6161 14.12387580869355"
      },
      "geometry": {
        "type": "Point",
        "coordinates": [
          -45.95822416374355,
          -0.4606668665602979
        ]
      }
    }
  ]
}